NORAD_CAT_ID,OBJECT_NAME,OBJECT_TYPE,EPOCH,MEAN_MOTION,ECCENTRICITY,INCLINATION,RA_OF_ASC_NODE,ARG_OF_PERICENTER,MEAN_ANOMALY,BSTAR,MEAN_MOTION_DOT,MEAN_MOTION_DDOT,TLE_LINE0,TLE_LINE1,TLE_LINE2,SEMIMAJOR_AXIS,PERIOD,APOGEE,PERIGEE,DECAYED
52380.0,STARLINK-3793,PAYLOAD,2024-06-07 18:35:49,15.08838394,0.0001266,53.2159,171.8358,92.6517,267.462,6.2294e-05,7.04e-06,0.0,0 STARLINK-3793,1 52380U 22045BB  24159.77487663  .00000704  00000-0  62294-4 0  9998,2 52380  53.2159 171.8358 0001266  92.6517 267.4620 15.08838394119459,6917.885,95.438,540.626,538.874,0.0
52380.0,STARLINK-3793,PAYLOAD,2024-06-07 21:46:36,15.08833841,0.0001468,53.2135,171.2414,96.5954,263.5206,3.202e-05,2.22e-06,0.0,0 STARLINK-3793,1 52380U 22045BB  24159.90736146  .00000222  00000-0  32020-4 0  9995,2 52380  53.2135 171.2414 0001468  96.5954 263.5206 15.08833841119473,6917.899,95.438,540.78,538.749,0.0
52380.0,STARLINK-3793,PAYLOAD,2024-06-08 05:43:33,15.08818217,0.0001205,53.2156,169.7554,90.9,269.213,-9.3543e-05,-1.775e-05,0.0,0 STARLINK-3793,1 52380U 22045BB  24160.23857782 -.00001775  00000-0 -93543-4 0  9996,2 52380  53.2156 169.7554 0001205  90.9000 269.2130 15.08818217119527,6917.947,95.439,540.646,538.978,0.0
52380.0,STARLINK-3793,PAYLOAD,2024-06-08 10:29:42,15.08819397,0.0001213,53.2157,168.8638,87.0197,273.0934,-9.5791e-05,-1.811e-05,0.0,0 STARLINK-3793,1 52380U 22045BB  24160.43729989 -.00001811  00000-0 -95791-4 0  9993,2 52380  53.2157 168.8638 0001213  87.0197 273.0934 15.08819397119552,6917.943,95.439,540.648,538.969,0.0
52380.0,STARLINK-3793,PAYLOAD,2024-06-09 05:34:20,15.0882842,0.0001192,53.2161,165.2966,84.72,275.3928,-1.9936e-05,-6.05e-06,0.0,0 STARLINK-3793,1 52380U 22045BB  24161.23218006 -.00000605  00000-0 -19936-4 0  9992,2 52380  53.2161 165.2966 0001192  84.7200 275.3928 15.08828420119675,6917.916,95.438,540.605,538.956,0.0
52380.0,STARLINK-3793,PAYLOAD,2024-06-09 07:09:43,15.08829688,0.0001216,53.2157,164.9986,85.9886,274.1245,-4.1647e-06,-3.54e-06,0.0,0 STARLINK-3793,1 52380U 22045BB  24161.29841959 -.00000354  00000-0 -41647-5 0  9993,2 52380  53.2157 164.9986 0001216  85.9886 274.1245 15.08829688119685,6917.912,95.438,540.618,538.936,0.0
52380.0,STARLINK-3793,PAYLOAD,2024-06-09 16:42:02,15.0883519,0.0001191,53.216,163.2149,83.8119,276.3009,2.222e-05,6.6e-07,0.0,0 STARLINK-3793,1 52380U 22045BB  24161.69585831  .00000066  00000-0  22220-4 0  9994,2 52380  53.2160 163.2149 0001191  83.8119 276.3009 15.08835190119744,6917.895,95.438,540.584,538.936,0.0
52380.0,STARLINK-3793,PAYLOAD,2024-06-10 07:00:30,15.08835653,0.0001158,53.215,160.5386,80.6251,279.4872,0.00037123,5.624e-05,0.0,0 STARLINK-3793,1 52380U 22045BB  24162.29202434  .00005624  00000-0  37123-3 0  9998,2 52380  53.2150 160.5386 0001158  80.6251 279.4872 15.08835653119837,6917.894,95.438,540.56,538.958,0.0
52380.0,STARLINK-3793,PAYLOAD,2024-06-11 05:15:54,15.08852994,0.0001216,53.2151,156.3743,70.2337,289.8787,0.00031957,4.804e-05,0.0,0 STARLINK-3793,1 52380U 22045BB  24163.21937544  .00004804  00000-0  31957-3 0  9996,2 52380  53.2151 156.3743 0001216  70.2337 289.8787 15.08852994119975,6917.841,95.437,540.547,538.864,0.0
52380.0,STARLINK-3793,PAYLOAD,2024-06-11 08:26:40,15.08858772,0.0001199,53.2151,155.7802,75.5182,284.5943,0.00039549,6.015e-05,0.0,0 STARLINK-3793,1 52380U 22045BB  24163.35185294  .00006015  00000-0  39549-3 0  9999,2 52380  53.2151 155.7802 0001199  75.5182 284.5943 15.08858772119998,6917.823,95.436,540.517,538.859,0.0
52380.0,STARLINK-3793,PAYLOAD,2024-06-12 06:42:03,15.08852371,0.0001249,53.2157,151.618,82.4837,277.6297,6.877e-05,8.07e-06,0.0,0 STARLINK-3793,1 52380U 22045BB  24164.27920701  .00000807  00000-0  68770-4 0  9993,2 52380  53.2157 151.6180 0001249  82.4837 277.6297 15.08852371120130,6917.843,95.437,540.572,538.844,0.0
52380.0,STARLINK-3793,PAYLOAD,2024-06-12 08:17:26,15.08853296,0.0001245,53.2156,151.3202,80.2067,279.9065,0.00010336,1.358e-05,0.0,0 STARLINK-3793,1 52380U 22045BB  24164.34544701  .00001358  00000-0  10336-3 0  9999,2 52380  53.2156 151.3202 0001245  80.2067 279.9065 15.08853296120144,6917.84,95.437,540.566,538.843,0.0
52380.0,STARLINK-3793,PAYLOAD,2024-06-12 22:35:54,15.08847242,0.0001337,53.216,148.6437,90.2,269.9146,-4.1646e-05,-9.51e-06,0.0,0 STARLINK-3793,1 52380U 22045BB  24164.94160654 -.00000951  00000-0 -41646-4 0  9995,2 52380  53.2160 148.6437 0001337  90.2000 269.9146 15.08847242120231,6917.858,95.437,540.648,538.798,0.0
52380.0,STARLINK-3793,PAYLOAD,2024-06-13 04:57:27,15.08845609,0.0001239,53.2163,147.4547,86.2222,273.8911,-1.939e-05,-5.97e-06,0.0,0 STARLINK-3793,1 52380U 22045BB  24165.20657115 -.00000597  00000-0 -19390-4 0  9995,2 52380  53.2163 147.4547 0001239  86.2222 273.8911 15.08845609120278,6917.863,95.437,540.585,538.871,0.0
52380.0,STARLINK-3793,PAYLOAD,2024-06-13 08:08:13,15.08848375,0.0001306,53.2165,146.86,85.2467,274.8674,2.3995e-06,-2.5e-06,0.0,0 STARLINK-3793,1 52380U 22045BB  24165.33904786 -.00000250  00000-0  23995-5 0  9990,2 52380  53.2165 146.8600 0001306  85.2467 274.8674 15.08848375120290,6917.855,95.437,540.623,538.816,0.0
52380.0,STARLINK-3793,PAYLOAD,2024-06-13 16:05:09,15.08843937,0.0001298,53.2165,145.3726,85.0012,275.1128,-1.5677e-05,-5.37e-06,0.0,0 STARLINK-3793,1 52380U 22045BB  24165.67024937 -.00000537  00000-0 -15677-4 0  9994,2 52380  53.2165 145.3726 0001298  85.0012 275.1128 15.08843937120340,6917.868,95.437,540.631,538.835,0.0
52380.0,STARLINK-3793,PAYLOAD,2024-06-14 04:48:14,15.08844217,0.000129,53.2162,142.9929,86.8379,273.2761,2.2334e-05,6.8e-07,0.0,0 STARLINK-3793,1 52380U 22045BB  24166.20016664  .00000068  00000-0  22334-4 0  9997,2 52380  53.2162 142.9929 0001290  86.8379 273.2761 15.08844217120425,6917.867,95.437,540.625,538.84,0.0
52380.0,STARLINK-3793,PAYLOAD,2024-06-14 22:17:28,15.08842246,0.00013,53.216,139.7217,87.2951,272.819,7.9689e-05,9.81e-06,0.0,0 STARLINK-3793,1 52380U 22045BB  24166.92880461  .00000981  00000-0  79689-4 0  9999,2 52380  53.2160 139.7217 0001300  87.2951 272.8190 15.08842246120533,6917.874,95.437,540.638,538.839,0.0
52380.0,STARLINK-3793,PAYLOAD,2024-06-15 07:49:47,15.08848341,0.0001285,53.2161,137.937,90.4945,269.6194,0.00010032,1.309e-05,0.0,0 STARLINK-3793,1 52380U 22045BB  24167.32623919  .00001309  00000-0  10032-3 0  9998,2 52380  53.2161 137.9370 0001285  90.4945 269.6194 15.08848341120591,6917.855,95.437,540.609,538.831,0.0
52380.0,STARLINK-3793,PAYLOAD,2024-06-15 22:08:15,15.08841685,0.0001408,53.2163,135.261,87.5865,272.5288,5.0137e-05,5.1e-06,0.0,0 STARLINK-3793,1 52380U 22045BB  24167.92240470  .00000510  00000-0  50137-4 0  9995,2 52380  53.2163 135.2610 0001408  87.5865 272.5288 15.08841685120687,6917.875,95.437,540.714,538.766,0.0
52380.0,STARLINK-3793,PAYLOAD,2024-06-16 07:40:34,15.08844788,0.000138,53.217,133.4771,97.5117,262.6032,7.4414e-05,8.97e-06,0.0,0 STARLINK-3793,1 52380U 22045BB  24168.31984126  .00000897  00000-0  74414-4 0  9994,2 52380  53.2170 133.4771 0001380  97.5117 262.6032 15.08844788120744,6917.866,95.437,540.685,538.776,0.0
52380.0,STARLINK-3793,PAYLOAD,2024-06-17 20:14:27,15.08833463,0.0001424,53.2173,126.6376,101.5712,258.544,1.9701e-05,2.6e-07,0.0,0 STARLINK-3793,1 52380U 22045BB  24169.84337266  .00000026  00000-0  19701-4 0  9992,2 52380  53.2173 126.6376 0001424 101.5712 258.5440 15.08833463120978,6917.9,95.438,540.75,538.78,0.0
52380.0,STARLINK-3793,PAYLOAD,2024-06-18 05:46:45,15.0884074,0.0001321,53.2173,124.8554,95.3945,264.7198,6.1153e-05,6.86e-06,0.0,0 STARLINK-3793,1 52380U 22045BB  24170.24080828  .00000686  00000-0  61153-4 0  9997,2 52380  53.2173 124.8554 0001321  95.3945 264.7198 15.08840740121033,6917.878,95.438,540.657,538.829,0.0
52380.0,STARLINK-3793,PAYLOAD,2024-06-18 13:43:41,15.08837561,0.0001231,53.2165,123.3691,94.716,265.3973,-5.5892e-07,-2.97e-06,0.0,0 STARLINK-3793,1 52380U 22045BB  24170.57201257 -.00000297  00000-0 -55892-6 0  9999,2 52380  53.2165 123.3691 0001231  94.7160 265.3973 15.08837561121082,6917.888,95.438,540.604,538.901,0.0
52380.0,STARLINK-3793,PAYLOAD,2024-06-19 04:02:10,15.08832939,0.0001411,53.2178,120.6934,97.2598,262.8554,6.2423e-05,7.05e-06,0.0,0 STARLINK-3793,1 52380U 22045BB  24171.16817803  .00000705  00000-0  62423-4 0  9993,2 52380  53.2178 120.6934 0001411  97.2598 262.8554 15.08832939121170,6917.902,95.438,540.743,538.791,0.0
52380.0,STARLINK-3793,PAYLOAD,2024-06-19 13:34:29,15.08835666,0.0001526,53.2184,118.9083,90.8683,269.2484,8.3849e-05,1.047e-05,0.0,0 STARLINK-3793,1 52380U 22045BB  24171.56561761  .00001047  00000-0  83849-4 0  9991,2 52380  53.2184 118.9083 0001526  90.8683 269.2484 15.08835666121233,6917.894,95.438,540.814,538.703,0.0
52380.0,STARLINK-3793,PAYLOAD,2024-06-20 03:52:57,15.08842953,0.0001547,53.2185,116.2319,90.8083,269.3086,6.4047e-05,7.32e-06,0.0,0 STARLINK-3793,1 52380U 22045BB  24172.16177469  .00000732  00000-0  64047-4 0  9995,2 52380  53.2185 116.2319 0001547  90.8083 269.3086 15.08842953121320,6917.871,95.437,540.807,538.666,0.0
52380.0,STARLINK-3793,PAYLOAD,2024-06-20 05:28:20,15.08843863,0.0001614,53.2177,115.9343,100.3295,259.7879,0.00011088,1.477e-05,0.0,0 STARLINK-3793,1 52380U 22045BB  24172.22801245  .00001477  00000-0  11088-3 0  9991,2 52380  53.2177 115.9343 0001614 100.3295 259.7879 15.08843863121336,6917.869,95.437,540.85,538.617,0.0
52380.0,STARLINK-3793,PAYLOAD,2024-06-21 00:32:58,15.08833805,0.0001825,53.2189,112.3627,84.0355,276.0845,5.9015e-05,6.51e-06,0.0,0 STARLINK-3793,1 52380U 22045BB  24173.02290286  .00000651  00000-0  59015-4 0  9993,2 52380  53.2189 112.3627 0001825  84.0355 276.0845 15.08833805121457,6917.899,95.438,541.027,538.502,0.0
52380.0,STARLINK-3793,PAYLOAD,2024-06-21 05:19:07,15.08841271,0.0001484,53.2173,111.4697,98.9061,261.2099,4.9735e-05,5.04e-06,0.0,0 STARLINK-3793,1 52380U 22045BB  24173.22161695  .00000504  00000-0  49735-4 0  9991,2 52380  53.2173 111.4697 0001484  98.9061 261.2099 15.08841271121482,6917.877,95.437,540.768,538.715,0.0
